COSMOS 2058             
1 20465U 90010A   26071.29648128  .00004828  00000+0  28453-3 0  9999
2 20465  82.4669  44.8592 0008956 335.9544  24.1267 15.11348167942630
SL-14 R/B               
1 20466U 90010B   26071.04752635  .00000457  00000+0  52505-4 0  9992
2 20466  82.4986 265.1732 0018438 293.9836  65.9448 14.83570863928838
SL-14 R/B               
1 20511U 90018B   26070.86510415  .00000590  00000+0  70923-4 0  9990
2 20511  82.5207 221.0560 0017653  85.4792 274.8438 14.82147386922900
HST                     
1 20580U 90037B   26071.22647860  .00008646  00000+0  28559-3 0  9990
2 20580  28.4723  22.6938 0001818 150.2149 209.8550 15.29528665773705
SL-16 R/B               
1 20625U 90046B   26071.03002069 -.00000183  00000+0 -69834-4 0  9997
2 20625  70.9984 292.9996 0016246 296.4241  63.5214 14.15011596848720
COSMOS 2084             
1 20663U 90055A   26071.04645392  .00002576  00000+0  19090-3 0  9996
2 20663  62.7917 327.5405 0016713 190.5750 169.5001 15.05666234936673
SL-6 R/B(2)             
1 20666U 90055D   26070.89931024  .00002340  00000+0  18378-3 0  9998
2 20666  62.7824 246.3360 0025157 347.5743  12.4732 15.03606413938523
SL-8 R/B                
1 20775U 90078B   26070.99460346  .00015814  00000+0  46583-3 0  9998
2 20775  82.9005 249.2375 0361733   6.2478 354.3067 14.89145616809649
SL-8 R/B                
1 21088U 91006B   26071.31042272  .00000083  00000+0  67994-4 0  9991
2 21088  82.9465 168.0977 0022925  31.1742  22.6836 13.77494703764437
OKEAN-3                 
1 21397U 91039A   26071.20582760  .00004201  00000+0  29507-3 0  9992
2 21397  82.5197 334.4060 0013726 328.3821  31.6580 15.04827213865412
COSMOS 2151             
1 21422U 91042A   26071.28478393  .00002266  00000+0  17929-3 0  9993
2 21422  82.4930  81.1722 0013902  55.8998 304.3543 15.00115055863584
SL-14 R/B               
1 21423U 91042B   26070.91856584  .00000580  00000+0  70352-4 0  9992
2 21423  82.4929 218.0922 0015906 230.7794 129.2009 14.81832118853405
