CCSDS_OMM_VERS = 2.0
CREATION_DATE  = 
ORIGINATOR     = 

OBJECT_NAME    = COSMOS 2058
OBJECT_ID      = 1990-010A
CENTER_NAME    = EARTH
REF_FRAME      = TEME
TIME_SYSTEM    = UTC
MEAN_ELEMENT_THEORY = SGP/SGP4

EPOCH          = 2026-03-12T07:06:55.982592
MEAN_MOTION    = 15.11348167
ECCENTRICITY   = .0008956
INCLINATION    = 82.4669
RA_OF_ASC_NODE = 44.8592
ARG_OF_PERICENTER = 335.9544
MEAN_ANOMALY   = 24.1267

EPHEMERIS_TYPE = 0
CLASSIFICATION_TYPE = U
NORAD_CAT_ID   = 20465
ELEMENT_SET_NO = 999
REV_AT_EPOCH   = 94263
BSTAR          = .28453469E-3
MEAN_MOTION_DOT = .4828E-4
MEAN_MOTION_DDOT = 0

CCSDS_OMM_VERS = 2.0
CREATION_DATE  = 
ORIGINATOR     = 

OBJECT_NAME    = SL-14 R/B
OBJECT_ID      = 1990-010B
CENTER_NAME    = EARTH
REF_FRAME      = TEME
TIME_SYSTEM    = UTC
MEAN_ELEMENT_THEORY = SGP/SGP4

EPOCH          = 2026-03-12T01:08:26.276640
MEAN_MOTION    = 14.83570863
ECCENTRICITY   = .00184387
INCLINATION    = 82.4986
RA_OF_ASC_NODE = 265.1732
ARG_OF_PERICENTER = 293.9836
MEAN_ANOMALY   = 65.9448

EPHEMERIS_TYPE = 0
CLASSIFICATION_TYPE = U
NORAD_CAT_ID   = 20466
ELEMENT_SET_NO = 999
REV_AT_EPOCH   = 92883
BSTAR          = .52504886E-4
MEAN_MOTION_DOT = .457E-5
MEAN_MOTION_DDOT = 0

CCSDS_OMM_VERS = 2.0
CREATION_DATE  = 
ORIGINATOR     = 

OBJECT_NAME    = SL-14 R/B
OBJECT_ID      = 1990-018B
CENTER_NAME    = EARTH
REF_FRAME      = TEME
TIME_SYSTEM    = UTC
MEAN_ELEMENT_THEORY = SGP/SGP4

EPOCH          = 2026-03-11T20:45:44.998560
MEAN_MOTION    = 14.82147386
ECCENTRICITY   = .00176536
INCLINATION    = 82.5207
RA_OF_ASC_NODE = 221.0560
ARG_OF_PERICENTER = 85.4792
MEAN_ANOMALY   = 274.8438

EPHEMERIS_TYPE = 0
CLASSIFICATION_TYPE = U
NORAD_CAT_ID   = 20511
ELEMENT_SET_NO = 999
REV_AT_EPOCH   = 92290
BSTAR          = .70922902E-4
MEAN_MOTION_DOT = .59E-5
MEAN_MOTION_DDOT = 0

CCSDS_OMM_VERS = 2.0
CREATION_DATE  = 
ORIGINATOR     = 

OBJECT_NAME    = HST
OBJECT_ID      = 1990-037B
CENTER_NAME    = EARTH
REF_FRAME      = TEME
TIME_SYSTEM    = UTC
MEAN_ELEMENT_THEORY = SGP/SGP4

EPOCH          = 2026-03-12T05:26:07.751040
MEAN_MOTION    = 15.29528665
ECCENTRICITY   = .00018183
INCLINATION    = 28.4723
RA_OF_ASC_NODE = 22.6938
ARG_OF_PERICENTER = 150.2149
MEAN_ANOMALY   = 209.8550

EPHEMERIS_TYPE = 0
CLASSIFICATION_TYPE = U
NORAD_CAT_ID   = 20580
ELEMENT_SET_NO = 999
REV_AT_EPOCH   = 77370
BSTAR          = .28558864E-3
MEAN_MOTION_DOT = .8646E-4
MEAN_MOTION_DDOT = 0

CCSDS_OMM_VERS = 2.0
CREATION_DATE  = 
ORIGINATOR     = 

OBJECT_NAME    = SL-16 R/B
OBJECT_ID      = 1990-046B
CENTER_NAME    = EARTH
REF_FRAME      = TEME
TIME_SYSTEM    = UTC
MEAN_ELEMENT_THEORY = SGP/SGP4

EPOCH          = 2026-03-12T00:43:13.787616
MEAN_MOTION    = 14.15011596
ECCENTRICITY   = .00162464
INCLINATION    = 70.9984
RA_OF_ASC_NODE = 292.9996
ARG_OF_PERICENTER = 296.4241
MEAN_ANOMALY   = 63.5214

EPHEMERIS_TYPE = 0
CLASSIFICATION_TYPE = U
NORAD_CAT_ID   = 20625
ELEMENT_SET_NO = 999
REV_AT_EPOCH   = 84872
BSTAR          = -.69834214E-4
MEAN_MOTION_DOT = -.183E-5
MEAN_MOTION_DDOT = 0

CCSDS_OMM_VERS = 2.0
CREATION_DATE  = 
ORIGINATOR     = 

OBJECT_NAME    = COSMOS 2084
OBJECT_ID      = 1990-055A
CENTER_NAME    = EARTH
REF_FRAME      = TEME
TIME_SYSTEM    = UTC
MEAN_ELEMENT_THEORY = SGP/SGP4

EPOCH          = 2026-03-12T01:06:53.618688
MEAN_MOTION    = 15.05666234
ECCENTRICITY   = .00167136
INCLINATION    = 62.7917
RA_OF_ASC_NODE = 327.5405
ARG_OF_PERICENTER = 190.5750
MEAN_ANOMALY   = 169.5001

EPHEMERIS_TYPE = 0
CLASSIFICATION_TYPE = U
NORAD_CAT_ID   = 20663
ELEMENT_SET_NO = 999
REV_AT_EPOCH   = 93667
BSTAR          = .19090475E-3
MEAN_MOTION_DOT = .2576E-4
MEAN_MOTION_DDOT = 0

CCSDS_OMM_VERS = 2.0
CREATION_DATE  = 
ORIGINATOR     = 

OBJECT_NAME    = SL-6 R/B(2)
OBJECT_ID      = 1990-055D
CENTER_NAME    = EARTH
REF_FRAME      = TEME
TIME_SYSTEM    = UTC
MEAN_ELEMENT_THEORY = SGP/SGP4

EPOCH          = 2026-03-11T21:35:00.404736
MEAN_MOTION    = 15.03606413
ECCENTRICITY   = .0025157
INCLINATION    = 62.7824
RA_OF_ASC_NODE = 246.3360
ARG_OF_PERICENTER = 347.5743
MEAN_ANOMALY   = 12.4732

EPHEMERIS_TYPE = 0
CLASSIFICATION_TYPE = U
NORAD_CAT_ID   = 20666
ELEMENT_SET_NO = 999
REV_AT_EPOCH   = 93852
BSTAR          = .18378E-3
MEAN_MOTION_DOT = .234E-4
MEAN_MOTION_DDOT = 0

CCSDS_OMM_VERS = 2.0
CREATION_DATE  = 
ORIGINATOR     = 

OBJECT_NAME    = SL-8 R/B
OBJECT_ID      = 1990-078B
CENTER_NAME    = EARTH
REF_FRAME      = TEME
TIME_SYSTEM    = UTC
MEAN_ELEMENT_THEORY = SGP/SGP4

EPOCH          = 2026-03-11T23:52:13.738944
MEAN_MOTION    = 14.89145616
ECCENTRICITY   = .03617337
INCLINATION    = 82.9005
RA_OF_ASC_NODE = 249.2375
ARG_OF_PERICENTER = 6.2478
MEAN_ANOMALY   = 354.3067

EPHEMERIS_TYPE = 0
CLASSIFICATION_TYPE = U
NORAD_CAT_ID   = 20775
ELEMENT_SET_NO = 999
REV_AT_EPOCH   = 80964
BSTAR          = .46583266E-3
MEAN_MOTION_DOT = .15814E-3
MEAN_MOTION_DDOT = 0

CCSDS_OMM_VERS = 2.0
CREATION_DATE  = 
ORIGINATOR     = 

OBJECT_NAME    = SL-8 R/B
OBJECT_ID      = 1991-006B
CENTER_NAME    = EARTH
REF_FRAME      = TEME
TIME_SYSTEM    = UTC
MEAN_ELEMENT_THEORY = SGP/SGP4

EPOCH          = 2026-03-12T07:27:00.523008
MEAN_MOTION    = 13.77494703
ECCENTRICITY   = .00229254
INCLINATION    = 82.9465
RA_OF_ASC_NODE = 168.0977
ARG_OF_PERICENTER = 31.1742
MEAN_ANOMALY   = 22.6836

EPHEMERIS_TYPE = 0
CLASSIFICATION_TYPE = U
NORAD_CAT_ID   = 21088
ELEMENT_SET_NO = 999
REV_AT_EPOCH   = 76443
BSTAR          = .67993516E-4
MEAN_MOTION_DOT = .83E-6
MEAN_MOTION_DDOT = 0

CCSDS_OMM_VERS = 2.0
CREATION_DATE  = 
ORIGINATOR     = 

OBJECT_NAME    = OKEAN-3
OBJECT_ID      = 1991-039A
CENTER_NAME    = EARTH
REF_FRAME      = TEME
TIME_SYSTEM    = UTC
MEAN_ELEMENT_THEORY = SGP/SGP4

EPOCH          = 2026-03-12T04:56:23.504640
MEAN_MOTION    = 15.04827213
ECCENTRICITY   = .00137267
INCLINATION    = 82.5197
RA_OF_ASC_NODE = 334.4060
ARG_OF_PERICENTER = 328.3821
MEAN_ANOMALY   = 31.6580

EPHEMERIS_TYPE = 0
CLASSIFICATION_TYPE = U
NORAD_CAT_ID   = 21397
ELEMENT_SET_NO = 999
REV_AT_EPOCH   = 86541
BSTAR          = .29506668E-3
MEAN_MOTION_DOT = .4201E-4
MEAN_MOTION_DDOT = 0

CCSDS_OMM_VERS = 2.0
CREATION_DATE  = 
ORIGINATOR     = 

OBJECT_NAME    = COSMOS 2151
OBJECT_ID      = 1991-042A
CENTER_NAME    = EARTH
REF_FRAME      = TEME
TIME_SYSTEM    = UTC
MEAN_ELEMENT_THEORY = SGP/SGP4

EPOCH          = 2026-03-12T06:50:05.331552
MEAN_MOTION    = 15.00115055
ECCENTRICITY   = .00139023
INCLINATION    = 82.4930
RA_OF_ASC_NODE = 81.1722
ARG_OF_PERICENTER = 55.8998
MEAN_ANOMALY   = 304.3543

EPHEMERIS_TYPE = 0
CLASSIFICATION_TYPE = U
NORAD_CAT_ID   = 21422
ELEMENT_SET_NO = 999
REV_AT_EPOCH   = 86358
BSTAR          = .17929458E-3
MEAN_MOTION_DOT = .2266E-4
MEAN_MOTION_DDOT = 0

CCSDS_OMM_VERS = 2.0
CREATION_DATE  = 
ORIGINATOR     = 

OBJECT_NAME    = SL-14 R/B
OBJECT_ID      = 1991-042B
CENTER_NAME    = EARTH
REF_FRAME      = TEME
TIME_SYSTEM    = UTC
MEAN_ELEMENT_THEORY = SGP/SGP4

EPOCH          = 2026-03-11T22:02:44.088576
MEAN_MOTION    = 14.81832118
ECCENTRICITY   = .0015906
INCLINATION    = 82.4929
RA_OF_ASC_NODE = 218.0922
ARG_OF_PERICENTER = 230.7794
MEAN_ANOMALY   = 129.2009

EPHEMERIS_TYPE = 0
CLASSIFICATION_TYPE = U
NORAD_CAT_ID   = 21423
ELEMENT_SET_NO = 999
REV_AT_EPOCH   = 85340
BSTAR          = .70352E-4
MEAN_MOTION_DOT = .58E-5
MEAN_MOTION_DDOT = 0

